[{"OBJECT_NAME":"GAOFEN-9 05","OBJECT_ID":"2020-058A","EPOCH":"2026-03-10T00:01:50.876256","MEAN_MOTION":15.30293976,"ECCENTRICITY":0.0010522,"INCLINATION":97.2228,"RA_OF_ASC_NODE":111.963,"ARG_OF_PERICENTER":91.0204,"MEAN_ANOMALY":269.2242,"EPHEMERIS_TYPE":0,"CLASSIFICATION_TYPE":"U","NORAD_CAT_ID":46232,"ELEMENT_SET_NO":999,"REV_AT_EPOCH":30843,"BSTAR":0.00025120304,"MEAN_MOTION_DOT":7.299e-5,"MEAN_MOTION_DDOT":0},{"OBJECT_NAME":"STARLINK-35469","OBJECT_ID":"2025-223K","EPOCH":"2026-03-09T21:32:11.078880","MEAN_MOTION":15.30196098,"ECCENTRICITY":0.0001175,"INCLINATION":53.1585,"RA_OF_ASC_NODE":293.4837,"ARG_OF_PERICENTER":57.8257,"MEAN_ANOMALY":302.2858,"EPHEMERIS_TYPE":0,"CLASSIFICATION_TYPE":"U","NORAD_CAT_ID":65863,"ELEMENT_SET_NO":999,"REV_AT_EPOCH":2423,"BSTAR":0.0011202105,"MEAN_MOTION_DOT":0.00032961,"MEAN_MOTION_DDOT":0}]
